NORAD_CAT_ID,OBJECT_NAME,OBJECT_TYPE,EPOCH,MEAN_MOTION,ECCENTRICITY,INCLINATION,RA_OF_ASC_NODE,ARG_OF_PERICENTER,MEAN_ANOMALY,BSTAR,MEAN_MOTION_DOT,MEAN_MOTION_DDOT,TLE_LINE0,TLE_LINE1,TLE_LINE2,SEMIMAJOR_AXIS,PERIOD,APOGEE,PERIGEE,DECAYED
53867.0,STARLINK-4793,PAYLOAD,2022-10-26 22:00:00,15.73225891,0.0001851,53.2153,71.3264,31.5194,11.4353,0.00020035,0.00027622,0.0,0 STARLINK-4793,1 53867U 22114BB  22299.91667824  .00027622  00000-0  20035-3 0  9998,2 53867  53.2153  71.3264 0001851  31.5194  11.4353 15.73225891  1305,6727.821,91.532,350.932,348.441,0.0
53867.0,STARLINK-4793,PAYLOAD,2022-10-27 14:00:01,15.73198406,0.0001947,53.2155,68.0269,33.1536,187.8155,0.00020992,0.00028941,0.0,0 STARLINK-4793,1 53867U 22114BB  22300.58335648  .00028941  00000-0  20992-3 0  9997,2 53867  53.2155  68.0269 0001947  33.1536 187.8155 15.73198406  6640,6727.9,91.533,351.075,348.455,0.0
53867.0,STARLINK-4793,PAYLOAD,2022-10-27 22:00:00,15.73272813,0.000199,53.215,66.3777,29.2944,280.5419,-0.00023834,-0.00034043,0.0,0 STARLINK-4793,1 53867U 22114BB  22300.91667824 -.00034043  00000-0 -23834-3 0  9998,2 53867  53.2150  66.3777 0001990  29.2944 280.5419 15.73272813  1304,6727.688,91.529,350.891,348.214,0.0
53867.0,STARLINK-4793,PAYLOAD,2022-10-28 14:00:01,15.73214381,0.0001961,53.2154,63.0785,28.0899,99.7855,-0.00019407,-0.00027786,0.0,0 STARLINK-4793,1 53867U 22114BB  22301.58335648 -.00027786  00000-0 -19407-3 0  9995,2 53867  53.2154  63.0785 0001961  28.0899  99.7855 15.73214381  1305,6727.854,91.532,351.039,348.4,0.0
53867.0,STARLINK-4793,PAYLOAD,2022-10-28 22:00:01,15.73242855,0.000202,53.2154,61.4292,22.802,193.9933,-0.00063669,-0.00089206,0.0,0 STARLINK-4793,1 53867U 22114BB  22301.91668981 -.00089206  00000-0 -63669-3 0  9995,2 53867  53.2154  61.4292 0002020  22.8020 193.9933 15.73242855  6851,6727.773,91.531,350.997,348.279,0.0
53867.0,STARLINK-4793,PAYLOAD,2022-10-29 12:00:00,15.73202839,0.0002165,53.2156,58.5421,28.2394,254.1263,0.00047089,0.00065998,0.0,0 STARLINK-4793,1 53867U 22114BB  22302.50001157  .00065998  00000-0  47089-3 0  9995,2 53867  53.2156  58.5421 0002165  28.2394 254.1263 15.73202839  1307,6727.887,91.533,351.209,348.295,0.0
53867.0,STARLINK-4793,PAYLOAD,2022-10-29 22:00:01,15.73299359,0.0002319,53.2149,56.4804,24.6618,98.9698,-0.00062948,-0.00088429,0.0,0 STARLINK-4793,1 53867U 22114BB  22302.91668981 -.00088429  00000-0 -62948-3 0  9991,2 53867  53.2149  56.4804 0002319  24.6618  98.9698 15.73299359  1300,6727.611999999999,91.527,351.037,347.917,0.0
53867.0,STARLINK-4793,PAYLOAD,2022-10-30 00:00:00,15.73289022,0.0002243,53.2149,56.0675,25.7251,210.0987,-0.00066291,-0.00093,0.0,0 STARLINK-4793,1 53867U 22114BB  22303.00001157 -.00093000  00000-0 -66291-3 0  9994,2 53867  53.2149  56.0675 0002243  25.7251 210.0987 15.73289022  7022,6727.641,91.528,351.015,347.997,0.0
53867.0,STARLINK-4793,PAYLOAD,2022-10-30 14:00:01,15.73186653,0.0002358,53.2151,53.1816,27.6133,273.8826,-0.00080392,-0.00111912,0.0,0 STARLINK-4793,1 53867U 22114BB  22303.58334491 -.00111912  00000-0 -80392-3 0  9998,2 53867  53.2151  53.1816 0002358  27.6133 273.8826 15.73186653  1307,6727.933000000001,91.534,351.385,348.212,0.0
53867.0,STARLINK-4793,PAYLOAD,2022-10-30 22:00:01,15.73116313,0.0002379,53.2152,51.5317,21.3532,9.0745,0.00042306,0.00058963,0.0,0 STARLINK-4793,1 53867U 22114BB  22303.91668981  .00058963  00000-0  42306-3 0  9996,2 53867  53.2152  51.5317 0002379  21.3532   9.0745 15.73116313  1308,6728.134,91.538,351.599,348.398,0.0
53867.0,STARLINK-4793,PAYLOAD,2022-10-31 14:00:01,15.73181865,0.0002460999999999,53.2151,48.2333,22.2553,185.8174,0.00050629,0.00070987,0.0,0 STARLINK-4793,1 53867U 22114BB  22304.58334491  .00070987  00000-0  50629-3 0  9993,2 53867  53.2151  48.2333 0002461  22.2553 185.8174 15.73181865  1306,6727.946999999999,91.534,351.468,348.156,0.0
53867.0,STARLINK-4793,PAYLOAD,2022-10-31 22:00:01,15.73284923,0.0002401999999999,53.2146,46.583,19.7922,277.276,-0.00043738,-0.00061788,0.0,0 STARLINK-4793,1 53867U 22114BB  22304.91668981 -.00061788  00000-0 -43738-3 0  9998,2 53867  53.2146  46.5830 0002402  19.7922 277.2760 15.73284923  1305,6727.653,91.528,351.134,347.902,0.0
53867.0,STARLINK-4793,PAYLOAD,2022-11-01 00:00:02,15.73270432,0.0002316,53.2148,46.1701,19.9532,29.3708,-0.00028835,-0.0004102,0.0,0 STARLINK-4793,1 53867U 22114BB  22305.00002315 -.00041020  00000-0 -28835-3 0  9990,2 53867  53.2148  46.1701 0002316  19.9532  29.3708 15.73270432  7330,6727.694,91.529,351.11800000000005,348.001,0.0
53867.0,STARLINK-4793,PAYLOAD,2022-11-01 14:00:01,15.73204359,0.0002523,53.2149,43.2843,19.7291,95.2693,-3.5154e-05,-5.554e-05,0.0,0 STARLINK-4793,1 53867U 22114BB  22305.58334491 -.00005554  00000-0 -35154-4 0  9991,2 53867  53.2149  43.2843 0002523  19.7291  95.2693 15.73204359  1307,6727.8830000000025,91.533,351.445,348.05,0.0
53867.0,STARLINK-4793,PAYLOAD,2022-11-01 22:00:00,15.73239253,0.0002575,53.2151,41.6339,19.4266,184.5,-0.00085613,-0.0011930999999999,0.0,0 STARLINK-4793,1 53867U 22114BB  22305.91667824 -.00119310  00000-0 -85613-3 0  9997,2 53867  53.2151  41.6339 0002575  19.4266 184.5000 15.73239253  1303,6727.783,91.531,351.381,347.916,0.0
53867.0,STARLINK-4793,PAYLOAD,2022-11-02 06:00:00,15.73150333,0.0002542,53.2154,39.983,24.0273,268.8279,-4.225e-05,-6.535e-05,0.0,0 STARLINK-4793,1 53867U 22114BB  22306.25001157 -.00006535  00000-0 -42250-4 0  9991,2 53867  53.2154  39.9830 0002542  24.0273 268.8279 15.73150333  7532,6728.0369999999975,91.536,351.612,348.19199999999995,0.0
53867.0,STARLINK-4793,PAYLOAD,2022-11-02 14:00:01,15.73129495,0.0002891,53.2158,38.3363,24.6974,357.0238,0.00056332,0.00078955,0.0,0 STARLINK-4793,1 53867U 22114BB  22306.58334491  .00078955  00000-0  56332-3 0  9995,2 53867  53.2158  38.3363 0002891  24.6974 357.0238 15.73129495  1301,6728.096,91.537,351.906,348.016,0.0
53867.0,STARLINK-4793,PAYLOAD,2022-11-02 22:00:00,15.73198633,0.0002833,53.2147,36.6852,24.5905,85.9753,0.00031271,0.00043497,0.0,0 STARLINK-4793,1 53867U 22114BB  22306.91667824  .00043497  00000-0  31271-3 0  9999,2 53867  53.2147  36.6852 0002833  24.5905  85.9753 15.73198633  7644,6727.899,91.533,351.67,347.858,0.0
53867.0,STARLINK-4793,PAYLOAD,2022-11-03 14:00:01,15.73280748,0.0002832,53.2153,33.3869,18.4034,270.1082,-0.00026708,-0.00038074,0.0,0 STARLINK-4793,1 53867U 22114BB  22307.58334491 -.00038074  00000-0 -26708-3 0  9990,2 53867  53.2153  33.3869 0002832  18.4034 270.1082 15.73280748  1306,6727.665,91.528,351.435,347.625,0.0
53867.0,STARLINK-4793,PAYLOAD,2022-11-03 22:00:00,15.73268557,0.0002741,53.2155,31.7361,12.1692,5.3511,-0.00045553,-0.00064268,0.0,0 STARLINK-4793,1 53867U 22114BB  22307.91667824 -.00064268  00000-0 -45553-3 0  9999,2 53867  53.2155  31.7361 0002741  12.1692   5.3511 15.73268557  1306,6727.7,91.529,351.409,347.721,0.0
53867.0,STARLINK-4793,PAYLOAD,2022-11-04 14:00:01,15.73273472,0.0002934,53.2167,28.4387,19.4499,175.9936,-0.0026314,-0.00355992,0.0,0 STARLINK-4793,1 53867U 22114BB  22308.58334491 -.00355992  00000-0 -26314-2 0  9994,2 53867  53.2167  28.4387 0002934  19.4499 175.9936 15.73273472  1306,6727.686,91.529,351.525,347.577,0.0
53867.0,STARLINK-4793,PAYLOAD,2022-11-04 22:00:01,15.73137383,0.0002851,53.2152,26.7871,10.4647,273.9604,-0.00059193,-0.00082683,0.0,0 STARLINK-4793,1 53867U 22114BB  22308.91668981 -.00082683  00000-0 -59193-3 0  9991,2 53867  53.2152  26.7871 0002851  10.4647 273.9604 15.73137383  7951,6728.074000000001,91.537,351.857,348.021,0.0
53867.0,STARLINK-4793,PAYLOAD,2022-11-05 14:00:01,15.73094589,0.0003051,53.2157,23.4902,11.4252,90.5774,0.00080122,0.00112852,0.0,0 STARLINK-4793,1 53867U 22114BB  22309.58335648  .00112852  00000-0  80122-3 0  9992,2 53867  53.2157  23.4902 0003051  11.4252  90.5774 15.73094589  1305,6728.196,91.539,352.11300000000006,348.0080000000001,0.0
53867.0,STARLINK-4793,PAYLOAD,2022-11-05 22:00:01,15.73183328,0.0003024,53.2159,21.8394,12.5225,178.3261,0.0003226,0.00044871,0.0,0 STARLINK-4793,1 53867U 22114BB  22309.91668981  .00044871  00000-0  32260-3 0  9993,2 53867  53.2159  21.8394 0003024  12.5225 178.3261 15.73183328  1302,6727.943,91.534,351.842,347.773,0.0
53867.0,STARLINK-4793,PAYLOAD,2022-11-06 06:00:00,15.73258602,0.000303,53.2161,20.1894,18.2522,261.471,-0.00029338,-0.00041707,0.0,0 STARLINK-4793,1 53867U 22114BB  22310.25001157 -.00041707  00000-0 -29338-3 0  9997,2 53867  53.2161  20.1894 0003030  18.2522 261.4710 15.73258602  8164,6727.728,91.53,351.63199999999995,347.555,0.0
53867.0,STARLINK-4793,PAYLOAD,2022-11-06 14:00:01,15.7320006,0.0003381,53.2158,18.5419,19.3182,349.3854,0.00067154,0.00094714,0.0,0 STARLINK-4793,1 53867U 22114BB  22310.58334491  .00094714  00000-0  67154-3 0  9995,2 53867  53.2158  18.5419 0003381  19.3182 349.3854 15.73200060  1306,6727.895,91.533,352.035,347.485,0.0
53867.0,STARLINK-4793,PAYLOAD,2022-11-07 00:00:00,15.73240322,0.0003082,53.2154,16.4778,15.0529,194.8772,-0.00045437,-0.00064035,0.0,0 STARLINK-4793,1 53867U 22114BB  22311.00001157 -.00064035  00000-0 -45437-3 0  9998,2 53867  53.2154  16.4778 0003082  15.0529 194.8772 15.73240322  8284,6727.78,91.531,351.719,347.57199999999995,0.0
53867.0,STARLINK-4793,PAYLOAD,2022-11-07 14:00:01,15.73220133,0.0003332,53.2156,13.5934,11.5654,264.0186,0.00030623,0.0004262,0.0,0 STARLINK-4793,1 53867U 22114BB  22311.58334491  .00042620  00000-0  30623-3 0  9996,2 53867  53.2156  13.5934 0003332  11.5654 264.0186 15.73220133  8373,6727.8380000000025,91.532,351.944,347.461,0.0
53867.0,STARLINK-4793,PAYLOAD,2022-11-07 22:00:00,15.73252013,0.0003143,53.2158,11.942,8.9059,355.6538,-0.00056513,-0.00079391,0.0,0 STARLINK-4793,1 53867U 22114BB  22311.91667824 -.00079391  00000-0 -56513-3 0  9995,2 53867  53.2158  11.9420 0003143   8.9059 355.6538 15.73252013  1302,6727.746999999999,91.53,351.726,347.497,0.0
